CCSDS_OEM_VERS = 1.0
CREATION_DATE  = 2017-05-11T11:53:01
ORIGINATOR     = GMAT USER

META_START
OBJECT_NAME          = MOPSSat_alt_35785_km_RAAN_270_039
OBJECT_ID            = SatId
CENTER_NAME          = Earth
REF_FRAME            = EME2000
TIME_SYSTEM          = UTC
START_TIME           = 2017-01-01T00:00:00.000
USEABLE_START_TIME   = 2017-01-01T00:00:00.000
USEABLE_STOP_TIME    = 2017-01-02T00:00:00.000
STOP_TIME            = 2017-01-02T00:00:00.000
INTERPOLATION        = Lagrange
INTERPOLATION_DEGREE = 7 
META_STOP


                                                                                   

2017-01-01T00:00:00.000  -7.745401145879604e-12  -4.216399999995784e+04   0.000000000000000e+00   3.027955193397738e+00  -5.562263453334217e-16   5.339101969723392e-01
2017-01-01T00:00:10.000   3.027954785226780e+01  -4.216398878925015e+04   5.339100997264115e+00   3.027954450174871e+00   2.242142123544108e-03   5.339100153651043e-01
2017-01-01T00:00:20.000   6.055908245567730e+01  -4.216395515712020e+04   1.067819915258704e+01   3.027952096759901e+00   4.484283179637760e-03   5.339095497898326e-01
2017-01-01T00:00:30.000   9.083858612757204e+01  -4.216389910358879e+04   1.601729134756376e+01   3.027948133154220e+00   6.726421858986414e-03   5.339088002468252e-01
2017-01-01T00:00:40.000   1.211180419295887e+02  -4.216382062868830e+04   2.135637459502745e+01   3.027942559360058e+00   8.968556907408966e-03   5.339077667365261e-01
2017-01-01T00:00:50.000   1.513974334304235e+02  -4.216371973246228e+04   2.669544599721998e+01   3.027935375380441e+00   1.121068710827088e-02   5.339064492595214e-01
2017-01-01T00:01:00.000   1.816767445161399e+02  -4.216359641496543e+04   3.203450271234421e+01   3.027926581219209e+00   1.345281126843792e-02   5.339048478165380e-01
2017-01-01T00:01:10.000   2.119559592433922e+02  -4.216345067626375e+04   3.737354192868324e+01   3.027916176880992e+00   1.569492820740764e-02   5.339029624084443e-01
2017-01-01T00:01:20.000   2.422350617309412e+02  -4.216328251643449e+04   4.271256084547169e+01   3.027904162371251e+00   1.793703674927624e-02   5.339007930362532e-01
2017-01-01T00:01:30.000   2.725140360848404e+02  -4.216309193556656e+04   4.805155665970402e+01   3.027890537696266e+00   2.017913571719885e-02   5.338983397011237e-01
2017-01-01T00:01:40.000   3.027928663526718e+02  -4.216287893376064e+04   5.339052655806516e+01   3.027875302863174e+00   2.242122393000077e-02   5.338956024043651e-01
2017-01-01T00:01:50.000   3.330715365022102e+02  -4.216264351112948e+04   5.872946771316838e+01   3.027858457879974e+00   2.466330020059754e-02   5.338925811474391e-01
2017-01-01T00:02:00.000   3.633500304198917e+02  -4.216238566779819e+04   6.406837728328526e+01   3.027840002755553e+00   2.690536333588162e-02   5.338892759319638e-01
2017-01-01T00:02:10.000   3.936283319244690e+02  -4.216210540390430e+04   6.940725241475346e+01   3.027819937499688e+00   2.914741213773341e-02   5.338856867597154e-01
2017-01-01T00:02:20.000   4.239064247912270e+02  -4.216180271959790e+04   7.474609024624672e+01   3.027798262123063e+00   3.138944540481457e-02   5.338818136326290e-01
2017-01-01T00:02:30.000   4.541842927821419e+02  -4.216147761504165e+04   8.008488791409246e+01   3.027774976637256e+00   3.363146193480099e-02   5.338776565527982e-01
2017-01-01T00:02:40.000   4.844619196773568e+02  -4.216113009041046e+04   8.542364255782213e+01   3.027750081054734e+00   3.587346052671376e-02   5.338732155224735e-01
2017-01-01T00:02:50.000   5.147392893033585e+02  -4.216076014589130e+04   9.076235132513929e+01   3.027723575388823e+00   3.811543998300543e-02   5.338684905440558e-01
2017-01-01T00:03:00.000   5.450163855532285e+02  -4.216036778168243e+04   9.610101137549026e+01   3.027695459653664e+00   4.035739911105954e-02   5.338634816200911e-01
2017-01-01T00:03:10.000   5.752931923943471e+02  -4.215995299799277e+04   1.014396198814231e+02   3.027665733864161e+00   4.259933672376130e-02   5.338581887532586e-01
2017-01-01T00:03:20.000   6.055696938589347e+02  -4.215951579504064e+04   1.067781740269188e+02   3.027634398035898e+00   4.484125163879687e-02   5.338526119463577e-01
2017-01-01T00:03:30.000   6.358458740127991e+02  -4.215905617305249e+04   1.121166710018821e+02   3.027601452185031e+00   4.708314267633949e-02   5.338467512022907e-01
2017-01-01T00:03:40.000   6.661217168977739e+02  -4.215857413227909e+04   1.174551079919901e+02   3.027566896329480e+00   4.932500865478693e-02   5.338406065242670e-01
2017-01-01T00:03:50.000   6.963972064429063e+02  -4.215806967297176e+04   1.227934821630338e+02   3.027530730487188e+00   5.156684838418514e-02   5.338341779155036e-01
2017-01-01T00:04:00.000   7.266723263402118e+02  -4.215754279539803e+04   1.281317906390095e+02   3.027492954677272e+00   5.380866065702840e-02   5.338274653794237e-01
2017-01-01T00:04:10.000   7.569470608947763e+02  -4.215699349983801e+04   1.334700306520143e+02   3.027453568919751e+00   5.605044431120725e-02   5.338204689196084e-01
2017-01-01T00:04:20.000   7.872213935828124e+02  -4.215642178658846e+04   1.388081992879940e+02   3.027412573235832e+00   5.829219812323573e-02   5.338131885398510e-01
2017-01-01T00:04:30.000   8.174953078417795e+02  -4.215582765596300e+04   1.441462936260614e+02   3.027369967647939e+00   6.053392086675820e-02   5.338056242441572e-01
2017-01-01T00:04:40.000   8.477687874933779e+02  -4.215521110828111e+04   1.494843108130818e+02   3.027325752178919e+00   6.277561134387109e-02   5.337977760366097e-01
2017-01-01T00:04:50.000   8.780418166696875e+02  -4.215457214386595e+04   1.548222480506492e+02   3.027279926851881e+00   6.501726837965369e-02   5.337896439213344e-01
2017-01-01T00:05:00.000   9.083143795098699e+02  -4.215391076305306e+04   1.601601025416067e+02   3.027232491690818e+00   6.725889079970951e-02   5.337812279026143e-01
2017-01-01T00:05:10.000   9.385864602384910e+02  -4.215322696618843e+04   1.654978715038571e+02   3.027183446720483e+00   6.950047743596587e-02   5.337725279848662e-01
2017-01-01T00:05:20.000   9.688580427734018e+02  -4.215252075363442e+04   1.708355521012215e+02   3.027132791966797e+00   7.174202709763841e-02   5.337635441727137e-01
2017-01-01T00:05:30.000   9.991291110168927e+02  -4.215179212576632e+04   1.761731414947782e+02   3.027080527456612e+00   7.398353859279032e-02   5.337542764709434e-01
2017-01-01T00:05:40.000   1.029399648855673e+03  -4.215104108297101e+04   1.815106368428581e+02   3.027026653217614e+00   7.622501072833088e-02   5.337447248844905e-01
2017-01-01T00:05:50.000   1.059669639869887e+03  -4.215026762565730e+04   1.868480352497379e+02   3.026971169279060e+00   7.846644228846879e-02   5.337348894185669e-01
2017-01-01T00:06:00.000   1.089939067725101e+03  -4.214947175424330e+04   1.921853338347562e+02   3.026914075670873e+00   8.070783206373781e-02   5.337247700785032e-01
2017-01-01T00:06:10.000   1.120207916017883e+03  -4.214865346916093e+04   1.975225297050864e+02   3.026855372423977e+00   8.294917883956252e-02   5.337143668698043e-01
2017-01-01T00:06:20.000   1.150476168958880e+03  -4.214781277083777e+04   2.028596200761807e+02   3.026795059568976e+00   8.519048144683840e-02   5.337036797979199e-01
2017-01-01T00:06:30.000   1.180743810689755e+03  -4.214694965971501e+04   2.081966021513279e+02   3.026733137137451e+00   8.743173871135297e-02   5.336927088684714e-01
2017-01-01T00:06:40.000   1.211010825437643e+03  -4.214606413624378e+04   2.135334731488884e+02   3.026669605161707e+00   8.967294946522228e-02   5.336814540872070e-01
2017-01-01T00:06:50.000   1.241277197123072e+03  -4.214515620089359e+04   2.188702302331606e+02   3.026604463675358e+00   9.191411251785896e-02   5.336699154601079e-01
2017-01-01T00:07:00.000   1.271542909651096e+03  -4.214422585414698e+04   2.242068705657143e+02   3.026537712712959e+00   9.415522667752946e-02   5.336580929933193e-01
2017-01-01T00:07:10.000   1.301807946911264e+03  -4.214327309649824e+04   2.295433913053861e+02   3.026469352309906e+00   9.639629075135187e-02   5.336459866931367e-01
2017-01-01T00:07:20.000   1.332072292486706e+03  -4.214229792846557e+04   2.348797895569842e+02   3.026399382503311e+00   9.863730352375473e-02   5.336335965661578e-01
2017-01-01T00:07:30.000   1.362335930046034e+03  -4.214130035057590e+04   2.402160624403887e+02   3.026327803330918e+00   1.008782637854959e-01   5.336209226190913e-01
2017-01-01T00:07:40.000   1.392598843188953e+03  -4.214028036337051e+04   2.455522070633310e+02   3.026254614831495e+00   1.031191703222307e-01   5.336079648588282e-01
2017-01-01T00:07:50.000   1.422861016129202e+03  -4.213923796738214e+04   2.508882206418137e+02   3.026179817043203e+00   1.053600219650827e-01   5.335947232921491e-01
2017-01-01T00:08:00.000   1.453122433011630e+03  -4.213817316315765e+04   2.562241003796918e+02   3.026103410005212e+00   1.076008175400735e-01   5.335811979260149e-01
2017-01-01T00:08:10.000   1.483383078066616e+03  -4.213708595125328e+04   2.615598434959027e+02   3.026025393757369e+00   1.098415558795583e-01   5.335673887675049e-01
2017-01-01T00:08:20.000   1.513642935218064e+03  -4.213597633224573e+04   2.668954471553444e+02   3.025945768340989e+00   1.120822357931981e-01   5.335532958239574e-01
2017-01-01T00:08:30.000   1.543901988374482e+03  -4.213484430672471e+04   2.722309085202009e+02   3.025864533798322e+00   1.143228560895138e-01   5.335389191028762e-01
2017-01-01T00:08:40.000   1.574160221428949e+03  -4.213368987529190e+04   2.775662247499366e+02   3.025781690172476e+00   1.165634155758838e-01   5.335242586119165e-01
2017-01-01T00:08:50.000   1.604417617968294e+03  -4.213251303857489e+04   2.829013929500156e+02   3.025697237508419e+00   1.188039130370089e-01   5.335093143590618e-01
2017-01-01T00:09:00.000   1.634674161664874e+03  -4.213131379720940e+04   2.882364102409841e+02   3.025611175851707e+00   1.210443472639230e-01   5.334940863523991e-01
